CCSDS_OMM_VERS = 2.0
CREATION_DATE  = 
ORIGINATOR     = 

OBJECT_NAME    = E-KAGAKU-1
OBJECT_ID      = 1998-067XQ
CENTER_NAME    = EARTH
REF_FRAME      = TEME
TIME_SYSTEM    = UTC
MEAN_ELEMENT_THEORY = SGP/SGP4

EPOCH          = 2026-03-12T07:14:55.759200
MEAN_MOTION    = 15.81386675
ECCENTRICITY   = .0005792
INCLINATION    = 51.6239
RA_OF_ASC_NODE = 43.8096
ARG_OF_PERICENTER = 91.6608
MEAN_ANOMALY   = 268.5057

EPHEMERIS_TYPE = 0
CLASSIFICATION_TYPE = U
NORAD_CAT_ID   = 65943
ELEMENT_SET_NO = 999
REV_AT_EPOCH   = 2391
BSTAR          = .11646E-2
MEAN_MOTION_DOT = .242002E-2
MEAN_MOTION_DDOT = 0

CCSDS_OMM_VERS = 2.0
CREATION_DATE  = 
ORIGINATOR     = 

OBJECT_NAME    = HRC MONOBLOCK CAMERA
OBJECT_ID      = 1998-067XR
CENTER_NAME    = EARTH
REF_FRAME      = TEME
TIME_SYSTEM    = UTC
MEAN_ELEMENT_THEORY = SGP/SGP4

EPOCH          = 2026-03-12T23:05:50.562528
MEAN_MOTION    = 15.62584835
ECCENTRICITY   = .0003784
INCLINATION    = 51.6276
RA_OF_ASC_NODE = 49.0120
ARG_OF_PERICENTER = 106.7264
MEAN_ANOMALY   = 253.4145

EPHEMERIS_TYPE = 0
CLASSIFICATION_TYPE = U
NORAD_CAT_ID   = 66052
ELEMENT_SET_NO = 999
REV_AT_EPOCH   = 2290
BSTAR          = .63184E-3
MEAN_MOTION_DOT = .57439E-3
MEAN_MOTION_DDOT = 0

CCSDS_OMM_VERS = 2.0
CREATION_DATE  = 
ORIGINATOR     = 

OBJECT_NAME    = HTV-X1
OBJECT_ID      = 2025-241A
CENTER_NAME    = EARTH
REF_FRAME      = TEME
TIME_SYSTEM    = UTC
MEAN_ELEMENT_THEORY = SGP/SGP4

EPOCH          = 2026-03-12T23:11:16.878912
MEAN_MOTION    = 15.22870559
ECCENTRICITY   = .0005807
INCLINATION    = 51.6351
RA_OF_ASC_NODE = 57.2626
ARG_OF_PERICENTER = 182.7900
MEAN_ANOMALY   = 177.3045

EPHEMERIS_TYPE = 0
CLASSIFICATION_TYPE = U
NORAD_CAT_ID   = 66174
ELEMENT_SET_NO = 999
REV_AT_EPOCH   = 2145
BSTAR          = .47039E-3
MEAN_MOTION_DOT = .10857E-3
MEAN_MOTION_DDOT = 0

CCSDS_OMM_VERS = 2.0
CREATION_DATE  = 
ORIGINATOR     = 

OBJECT_NAME    = SZ-21 MODULE
OBJECT_ID      = 2025-246C
CENTER_NAME    = EARTH
REF_FRAME      = TEME
TIME_SYSTEM    = UTC
MEAN_ELEMENT_THEORY = SGP/SGP4

EPOCH          = 2026-03-12T16:24:29.899296
MEAN_MOTION    = 15.68803443
ECCENTRICITY   = .0001119
INCLINATION    = 41.4730
RA_OF_ASC_NODE = 184.9262
ARG_OF_PERICENTER = 307.7188
MEAN_ANOMALY   = 52.3552

EPHEMERIS_TYPE = 0
CLASSIFICATION_TYPE = U
NORAD_CAT_ID   = 66515
ELEMENT_SET_NO = 999
REV_AT_EPOCH   = 1854
BSTAR          = .34395E-3
MEAN_MOTION_DOT = .40419E-3
MEAN_MOTION_DDOT = 0

CCSDS_OMM_VERS = 2.0
CREATION_DATE  = 
ORIGINATOR     = 

OBJECT_NAME    = SHENZHOU-22
OBJECT_ID      = 2025-272A
CENTER_NAME    = EARTH
REF_FRAME      = TEME
TIME_SYSTEM    = UTC
MEAN_ELEMENT_THEORY = SGP/SGP4

EPOCH          = 2026-03-12T15:49:01.500960
MEAN_MOTION    = 15.60827652
ECCENTRICITY   = .0006713
INCLINATION    = 41.4661
RA_OF_ASC_NODE = 190.0925
ARG_OF_PERICENTER = 290.2953
MEAN_ANOMALY   = 69.7164

EPHEMERIS_TYPE = 0
CLASSIFICATION_TYPE = U
NORAD_CAT_ID   = 66645
ELEMENT_SET_NO = 999
REV_AT_EPOCH   = 26979
BSTAR          = .31305E-3
MEAN_MOTION_DOT = .26654E-3
MEAN_MOTION_DDOT = 0

CCSDS_OMM_VERS = 2.0
CREATION_DATE  = 
ORIGINATOR     = 

OBJECT_NAME    = SOYUZ-MS 28
OBJECT_ID      = 2025-275A
CENTER_NAME    = EARTH
REF_FRAME      = TEME
TIME_SYSTEM    = UTC
MEAN_ELEMENT_THEORY = SGP/SGP4

EPOCH          = 2026-03-12T20:51:23.156928
MEAN_MOTION    = 15.48614629
ECCENTRICITY   = .0007924
INCLINATION    = 51.6324
RA_OF_ASC_NODE = 56.6367
ARG_OF_PERICENTER = 186.1410
MEAN_ANOMALY   = 173.9482

EPHEMERIS_TYPE = 0
CLASSIFICATION_TYPE = U
NORAD_CAT_ID   = 66664
ELEMENT_SET_NO = 999
REV_AT_EPOCH   = 55684
BSTAR          = .21655E-3
MEAN_MOTION_DOT = .11348E-3
MEAN_MOTION_DDOT = 0

CCSDS_OMM_VERS = 2.0
CREATION_DATE  = 
ORIGINATOR     = 

OBJECT_NAME    = DUPLEX
OBJECT_ID      = 1998-067XS
CENTER_NAME    = EARTH
REF_FRAME      = TEME
TIME_SYSTEM    = UTC
MEAN_ELEMENT_THEORY = SGP/SGP4

EPOCH          = 2026-03-12T05:15:07.769088
MEAN_MOTION    = 15.56413150
ECCENTRICITY   = .0002554
INCLINATION    = 51.6293
RA_OF_ASC_NODE = 56.7987
ARG_OF_PERICENTER = 123.1889
MEAN_ANOMALY   = 236.9348

EPHEMERIS_TYPE = 0
CLASSIFICATION_TYPE = U
NORAD_CAT_ID   = 66906
ELEMENT_SET_NO = 999
REV_AT_EPOCH   = 1552
BSTAR          = .52838E-3
MEAN_MOTION_DOT = .37736E-3
MEAN_MOTION_DDOT = 0

CCSDS_OMM_VERS = 2.0
CREATION_DATE  = 
ORIGINATOR     = 

OBJECT_NAME    = ISS OBJECT XT
OBJECT_ID      = 1998-067XT
CENTER_NAME    = EARTH
REF_FRAME      = TEME
TIME_SYSTEM    = UTC
MEAN_ELEMENT_THEORY = SGP/SGP4

EPOCH          = 2026-03-12T07:41:21.335712
MEAN_MOTION    = 15.70168045
ECCENTRICITY   = .0004715
INCLINATION    = 51.6249
RA_OF_ASC_NODE = 52.2093
ARG_OF_PERICENTER = 95.5605
MEAN_ANOMALY   = 264.5930

EPHEMERIS_TYPE = 0
CLASSIFICATION_TYPE = U
NORAD_CAT_ID   = 66907
ELEMENT_SET_NO = 999
REV_AT_EPOCH   = 1559
BSTAR          = .14377E-2
MEAN_MOTION_DOT = .18121E-2
MEAN_MOTION_DDOT = 0

CCSDS_OMM_VERS = 2.0
CREATION_DATE  = 
ORIGINATOR     = 

OBJECT_NAME    = ISS OBJECT XU
OBJECT_ID      = 1998-067XU
CENTER_NAME    = EARTH
REF_FRAME      = TEME
TIME_SYSTEM    = UTC
MEAN_ELEMENT_THEORY = SGP/SGP4

EPOCH          = 2026-03-12T04:35:10.207968
MEAN_MOTION    = 15.70253790
ECCENTRICITY   = .00048498
INCLINATION    = 51.6251
RA_OF_ASC_NODE = 52.8423
ARG_OF_PERICENTER = 95.5022
MEAN_ANOMALY   = 264.6529

EPHEMERIS_TYPE = 0
CLASSIFICATION_TYPE = U
NORAD_CAT_ID   = 66908
ELEMENT_SET_NO = 999
REV_AT_EPOCH   = 1557
BSTAR          = .13761345E-2
MEAN_MOTION_DOT = .173902E-2
MEAN_MOTION_DDOT = 0

CCSDS_OMM_VERS = 2.0
CREATION_DATE  = 
ORIGINATOR     = 

OBJECT_NAME    = SILVERSAT
OBJECT_ID      = 1998-067XV
CENTER_NAME    = EARTH
REF_FRAME      = TEME
TIME_SYSTEM    = UTC
MEAN_ELEMENT_THEORY = SGP/SGP4

EPOCH          = 2026-03-12T04:30:05.692032
MEAN_MOTION    = 15.73352402
ECCENTRICITY   = .00054282
INCLINATION    = 51.6249
RA_OF_ASC_NODE = 52.0679
ARG_OF_PERICENTER = 93.6368
MEAN_ANOMALY   = 266.5252

EPHEMERIS_TYPE = 0
CLASSIFICATION_TYPE = U
NORAD_CAT_ID   = 66909
ELEMENT_SET_NO = 999
REV_AT_EPOCH   = 1558
BSTAR          = .15879127E-2
MEAN_MOTION_DOT = .230471E-2
MEAN_MOTION_DDOT = 0

CCSDS_OMM_VERS = 2.0
CREATION_DATE  = 
ORIGINATOR     = 

OBJECT_NAME    = ISS OBJECT XW
OBJECT_ID      = 1998-067XW
CENTER_NAME    = EARTH
REF_FRAME      = TEME
TIME_SYSTEM    = UTC
MEAN_ELEMENT_THEORY = SGP/SGP4

EPOCH          = 2026-03-12T22:52:31.155168
MEAN_MOTION    = 15.69619162
ECCENTRICITY   = .0005326
INCLINATION    = 51.6244
RA_OF_ASC_NODE = 48.9273
ARG_OF_PERICENTER = 105.6610
MEAN_ANOMALY   = 254.4975

EPHEMERIS_TYPE = 0
CLASSIFICATION_TYPE = U
NORAD_CAT_ID   = 66910
ELEMENT_SET_NO = 999
REV_AT_EPOCH   = 1569
BSTAR          = .12885E-2
MEAN_MOTION_DOT = .158268E-2
MEAN_MOTION_DDOT = 0

CCSDS_OMM_VERS = 2.0
CREATION_DATE  = 
ORIGINATOR     = 

OBJECT_NAME    = ISS OBJECT XX
OBJECT_ID      = 1998-067XX
CENTER_NAME    = EARTH
REF_FRAME      = TEME
TIME_SYSTEM    = UTC
MEAN_ELEMENT_THEORY = SGP/SGP4

EPOCH          = 2026-03-12T11:54:35.861760
MEAN_MOTION    = 15.76985712
ECCENTRICITY   = .0006975
INCLINATION    = 51.6223
RA_OF_ASC_NODE = 49.6058
ARG_OF_PERICENTER = 102.6102
MEAN_ANOMALY   = 257.5678

EPHEMERIS_TYPE = 0
CLASSIFICATION_TYPE = U
NORAD_CAT_ID   = 66911
ELEMENT_SET_NO = 999
REV_AT_EPOCH   = 1563
BSTAR          = .1714E-2
MEAN_MOTION_DOT = .293883E-2
MEAN_MOTION_DDOT = 0

